start=new Date('2022-11-10T00:00:00.000Z').valueOf();
sats=[{"BSTAR":"-0.00010024000000","LAUNCH_DATE":"2022-05-06","MEAN_MOTION":"15.08827654","COUNTRY_CODE":"US","OBJECT_TYPE":"PAYLOAD","EPOCH":"2022-11-09T20:04:56.504640","SEMIMAJOR_AXIS":"6917.918","RCS_SIZE":"LARGE","NORAD_CAT_ID":"52461","MEAN_ANOMALY":"318.5514","EPHEMERIS_TYPE":"0","MEAN_ELEMENT_THEORY":"SGP4","TIME_SYSTEM":"UTC","SITE":"AFETR","PERIOD":"95.438","ECCENTRICITY":"0.00016930","TLE_LINE2":"2 52461  53.2179 107.2890 0001693  41.5607 318.5514 15.08827654 28830","TLE_LINE1":"1 52461U 22049L   22313.83676510 -.00001882  00000-0 -10024-3 0  9993","DECAY_DATE":null,"MEAN_MOTION_DOT":"-0.00001882","REF_FRAME":"TEME","INCLINATION":"53.2179","OBJECT_ID":"2022-049L","ARG_OF_PERICENTER":"41.5607","MEAN_MOTION_DDOT":"0.0000000000000","REV_AT_EPOCH":"2883","APOAPSIS":"540.954","PERIAPSIS":"538.612","FILE":"3650001","OBJECT_NAME":"STARLINK-3900","CENTER_NAME":"EARTH","RA_OF_ASC_NODE":"107.2890","GP_ID":"217275945","CLASSIFICATION_TYPE":"U","ELEMENT_SET_NO":"999"},{"RCS_SIZE":"LARGE","SEMIMAJOR_AXIS":"6917.905","EPOCH":"2022-11-09T18:22:55.487136","OBJECT_TYPE":"PAYLOAD","COUNTRY_CODE":"US","LAUNCH_DATE":"2022-05-06","MEAN_MOTION":"15.08831825","BSTAR":"0.00000821230000","OBJECT_ID":"2022-049M","MEAN_MOTION_DOT":"-0.00000157","TLE_LINE1":"1 52462U 22049M   22313.76591999 -.00000157  00000-0  82123-5 0  9997","DECAY_DATE":null,"INCLINATION":"53.2165","REF_FRAME":"TEME","TLE_LINE2":"2 52462  53.2165 117.6077 0001696  49.4621 310.6518 15.08831825 28689","ECCENTRICITY":"0.00016960","SITE":"AFETR","PERIOD":"95.438","TIME_SYSTEM":"UTC","MEAN_ELEMENT_THEORY":"SGP4","EPHEMERIS_TYPE":"0","MEAN_ANOMALY":"310.6518","NORAD_CAT_ID":"52462","FILE":"3650001","PERIAPSIS":"538.597","OBJECT_NAME":"STARLINK-3903","APOAPSIS":"540.944","REV_AT_EPOCH":"2868","MEAN_MOTION_DDOT":"0.0000000000000","ARG_OF_PERICENTER":"49.4621","ELEMENT_SET_NO":"999","CLASSIFICATION_TYPE":"U","GP_ID":"217274693","CENTER_NAME":"EARTH","RA_OF_ASC_NODE":"117.6077"},{"ARG_OF_PERICENTER":"48.9663","MEAN_MOTION_DDOT":"0.0000000000000","FILE":"3650001","PERIAPSIS":"538.474","OBJECT_NAME":"STARLINK-3885","REV_AT_EPOCH":"2883","APOAPSIS":"540.944","GP_ID":"217274943","RA_OF_ASC_NODE":"107.3032","CENTER_NAME":"EARTH","ELEMENT_SET_NO":"999","CLASSIFICATION_TYPE":"U","LAUNCH_DATE":"2022-05-06","BSTAR":"0.00016505000000","MEAN_MOTION":"15.08852013","EPOCH":"2022-11-09T19:59:38.919840","RCS_SIZE":"LARGE","SEMIMAJOR_AXIS":"6917.844","COUNTRY_CODE":"US","OBJECT_TYPE":"PAYLOAD","TIME_SYSTEM":"UTC","EPHEMERIS_TYPE":"0","NORAD_CAT_ID":"52463","MEAN_ANOMALY":"311.1483","MEAN_ELEMENT_THEORY":"SGP4","DECAY_DATE":null,"TLE_LINE1":"1 52463U 22049N   22313.83308935  .00002341  00000-0  16505-3 0  9997","MEAN_MOTION_DOT":"0.00002341","REF_FRAME":"TEME","INCLINATION":"53.2152","TLE_LINE2":"2 52463  53.2152 107.3032 0001785  48.9663 311.1483 15.08852013 28838","OBJECT_ID":"2022-049N","SITE":"AFETR","PERIOD":"95.437","ECCENTRICITY":"0.00017850"},{"REV_AT_EPOCH":"2869","APOAPSIS":"540.960","PERIAPSIS":"538.565","FILE":"3650001","OBJECT_NAME":"STARLINK-3904","ARG_OF_PERICENTER":"53.5751","MEAN_MOTION_DDOT":"0.0000000000000","CLASSIFICATION_TYPE":"U","ELEMENT_SET_NO":"999","RA_OF_ASC_NODE":"117.2980","CENTER_NAME":"EARTH","GP_ID":"217276194","COUNTRY_CODE":"US","OBJECT_TYPE":"PAYLOAD","EPOCH":"2022-11-09T20:03:36.283968","RCS_SIZE":"LARGE","SEMIMAJOR_AXIS":"6917.897","LAUNCH_DATE":"2022-05-06","BSTAR":"-0.00019231000000","MEAN_MOTION":"15.08834512","PERIOD":"95.438","SITE":"AFETR","ECCENTRICITY":"0.00017310","TLE_LINE1":"1 52464U 22049P   22313.83583662 -.00003347  00000-0 -19231-3 0  9998","DECAY_DATE":null,"MEAN_MOTION_DOT":"-0.00003347","INCLINATION":"53.2160","REF_FRAME":"TEME","TLE_LINE2":"2 52464  53.2160 117.2980 0001731  53.5751 306.5400 15.08834512 28696","OBJECT_ID":"2022-049P","EPHEMERIS_TYPE":"0","MEAN_ANOMALY":"306.5400","NORAD_CAT_ID":"52464","MEAN_ELEMENT_THEORY":"SGP4","TIME_SYSTEM":"UTC"},{"ARG_OF_PERICENTER":"40.5179","MEAN_MOTION_DDOT":"0.0000000000000","PERIAPSIS":"538.387","FILE":"3650001","OBJECT_NAME":"STARLINK-3863","REV_AT_EPOCH":"2883","APOAPSIS":"541.118","GP_ID":"217276446","CENTER_NAME":"EARTH","RA_OF_ASC_NODE":"107.3195","ELEMENT_SET_NO":"999","CLASSIFICATION_TYPE":"U","LAUNCH_DATE":"2022-05-06","BSTAR":"0.00005175100000","MEAN_MOTION":"15.08837665","EPOCH":"2022-11-09T19:54:20.516832","SEMIMAJOR_AXIS":"6917.888","RCS_SIZE":"LARGE","COUNTRY_CODE":"US","OBJECT_TYPE":"PAYLOAD","TIME_SYSTEM":"UTC","NORAD_CAT_ID":"52465","MEAN_ANOMALY":"319.5960","EPHEMERIS_TYPE":"0","MEAN_ELEMENT_THEORY":"SGP4","TLE_LINE2":"2 52465  53.2159 107.3195 0001974  40.5179 319.5960 15.08837665 28835","TLE_LINE1":"1 52465U 22049Q   22313.82940413  .00000535  00000-0  51751-4 0  9997","MEAN_MOTION_DOT":"0.00000535","DECAY_DATE":null,"REF_FRAME":"TEME","INCLINATION":"53.2159","OBJECT_ID":"2022-049Q","PERIOD":"95.438","SITE":"AFETR","ECCENTRICITY":"0.00019740"},{"ECCENTRICITY":"0.00018200","PERIOD":"95.439","SITE":"AFETR","OBJECT_ID":"2022-049R","MEAN_MOTION_DOT":"-0.00002003","TLE_LINE1":"1 52466U 22049R   22313.82481141 -.00002003  00000-0 -10783-3 0  9999","DECAY_DATE":null,"INCLINATION":"53.2168","REF_FRAME":"TEME","TLE_LINE2":"2 52466  53.2168 117.3418 0001820  41.4532 318.6598 15.08821895 28697","MEAN_ELEMENT_THEORY":"SGP4","EPHEMERIS_TYPE":"0","NORAD_CAT_ID":"52466","MEAN_ANOMALY":"318.6598","TIME_SYSTEM":"UTC","OBJECT_TYPE":"PAYLOAD","COUNTRY_CODE":"US","RCS_SIZE":"LARGE","SEMIMAJOR_AXIS":"6917.936","EPOCH":"2022-11-09T19:47:43.705824","LAUNCH_DATE":"2022-05-06","BSTAR":"-0.00010783000000","MEAN_MOTION":"15.08821895","CLASSIFICATION_TYPE":"U","ELEMENT_SET_NO":"999","CENTER_NAME":"EARTH","RA_OF_ASC_NODE":"117.3418","GP_ID":"217275194","APOAPSIS":"541.060","REV_AT_EPOCH":"2869","FILE":"3650001","PERIAPSIS":"538.542","OBJECT_NAME":"STARLINK-3840","MEAN_MOTION_DDOT":"0.0000000000000","ARG_OF_PERICENTER":"41.4532"},{"MEAN_MOTION":"15.08835538","LAUNCH_DATE":"2022-05-06","BSTAR":"-0.00003877400000","OBJECT_TYPE":"PAYLOAD","COUNTRY_CODE":"US","RCS_SIZE":"LARGE","SEMIMAJOR_AXIS":"6917.894","EPOCH":"2022-11-09T19:53:00.927744","MEAN_ELEMENT_THEORY":"SGP4","EPHEMERIS_TYPE":"0","NORAD_CAT_ID":"52467","MEAN_ANOMALY":"300.5294","TIME_SYSTEM":"UTC","ECCENTRICITY":"0.00015050","PERIOD":"95.438","SITE":"AFETR","OBJECT_ID":"2022-049S","DECAY_DATE":null,"TLE_LINE1":"1 52467U 22049S   22313.82848296 -.00000905  00000-0 -38774-4 0  9998","REF_FRAME":"TEME","MEAN_MOTION_DOT":"-0.00000905","INCLINATION":"53.2166","TLE_LINE2":"2 52467  53.2166 117.3320 0001505  59.5847 300.5294 15.08835538 28699","MEAN_MOTION_DDOT":"0.0000000000000","ARG_OF_PERICENTER":"59.5847","APOAPSIS":"540.800","REV_AT_EPOCH":"2869","OBJECT_NAME":"STARLINK-3873","FILE":"3650001","PERIAPSIS":"538.718","RA_OF_ASC_NODE":"117.3320","CENTER_NAME":"EARTH","GP_ID":"217275444","CLASSIFICATION_TYPE":"U","ELEMENT_SET_NO":"999"},{"ELEMENT_SET_NO":"999","CLASSIFICATION_TYPE":"U","GP_ID":"217275694","CENTER_NAME":"EARTH","RA_OF_ASC_NODE":"117.1035","OBJECT_NAME":"STARLINK-3864","FILE":"3650001","PERIAPSIS":"538.423","REV_AT_EPOCH":"2870","APOAPSIS":"541.082","ARG_OF_PERICENTER":"47.4105","MEAN_MOTION_DDOT":"0.0000000000000","TLE_LINE1":"1 52468U 22049T   22313.87999775 -.00000145  00000-0  90172-5 0  9999","REF_FRAME":"TEME","DECAY_DATE":null,"MEAN_MOTION_DOT":"-0.00000145","INCLINATION":"53.2157","TLE_LINE2":"2 52468  53.2157 117.1035 0001922  47.4105 312.7049 15.08837697 28700","OBJECT_ID":"2022-049T","SITE":"AFETR","PERIOD":"95.438","ECCENTRICITY":"0.00019220","TIME_SYSTEM":"UTC","EPHEMERIS_TYPE":"0","NORAD_CAT_ID":"52468","MEAN_ANOMALY":"312.7049","MEAN_ELEMENT_THEORY":"SGP4","EPOCH":"2022-11-09T21:07:11.805600","RCS_SIZE":"LARGE","SEMIMAJOR_AXIS":"6917.887","COUNTRY_CODE":"US","OBJECT_TYPE":"PAYLOAD","LAUNCH_DATE":"2022-05-06","MEAN_MOTION":"15.08837697","BSTAR":"0.00000901720000"},{"MEAN_MOTION":"15.08832684","LAUNCH_DATE":"2022-05-06","BSTAR":"0.00000635160000","EPOCH":"2022-11-09T18:07:01.752096","RCS_SIZE":"LARGE","SEMIMAJOR_AXIS":"6917.903","COUNTRY_CODE":"US","OBJECT_TYPE":"PAYLOAD","TIME_SYSTEM":"UTC","EPHEMERIS_TYPE":"0","NORAD_CAT_ID":"52469","MEAN_ANOMALY":"306.2186","MEAN_ELEMENT_THEORY":"SGP4","TLE_LINE1":"1 52469U 22049R   22313.75488139 -.00000187  00000-0  63516-5 0  9992","DECAY_DATE":null,"MEAN_MOTION_DOT":"-0.00000187","REF_FRAME":"TEME","INCLINATION":"53.2166","TLE_LINE2":"2 52469  53.2166 117.6620 0001694  53.8963 306.2186 15.08832684 28683","OBJECT_ID":"2022-049U","SITE":"AFETR","PERIOD":"95.438","ECCENTRICITY":"0.00016940","ARG_OF_PERICENTER":"53.8963","MEAN_MOTION_DDOT":"0.0000000000000","PERIAPSIS":"538.596","FILE":"3650001","OBJECT_NAME":"STARLINK-3828","REV_AT_EPOCH":"2868","APOAPSIS":"540.940","GP_ID":"217275946","CENTER_NAME":"EARTH","RA_OF_ASC_NODE":"117.6620","ELEMENT_SET_NO":"999","CLASSIFICATION_TYPE":"U"},{"EPOCH":"2022-11-09T20:56:35.848896","SEMIMAJOR_AXIS":"6917.830","RCS_SIZE":"LARGE","COUNTRY_CODE":"US","OBJECT_TYPE":"PAYLOAD","LAUNCH_DATE":"2022-05-06","MEAN_MOTION":"15.08856419","BSTAR":"0.00036173000000","TLE_LINE2":"2 52470  53.2167 117.1393 0001660  58.1924 301.9229 15.08856419 28701","TLE_LINE1":"1 52470U 22049V   22313.87263714  .00005476  00000-0  36173-3 0  9999","DECAY_DATE":null,"REF_FRAME":"TEME","MEAN_MOTION_DOT":"0.00005476","INCLINATION":"53.2167","OBJECT_ID":"2022-049V","PERIOD":"95.437","SITE":"AFETR","ECCENTRICITY":"0.00016600","TIME_SYSTEM":"UTC","NORAD_CAT_ID":"52470","MEAN_ANOMALY":"301.9229","EPHEMERIS_TYPE":"0","MEAN_ELEMENT_THEORY":"SGP4","FILE":"3650001","PERIAPSIS":"538.547","OBJECT_NAME":"STARLINK-3859","REV_AT_EPOCH":"2870","APOAPSIS":"540.844","ARG_OF_PERICENTER":"58.1924","MEAN_MOTION_DDOT":"0.0000000000000","ELEMENT_SET_NO":"999","CLASSIFICATION_TYPE":"U","GP_ID":"217274694","RA_OF_ASC_NODE":"117.1393","CENTER_NAME":"EARTH"}];
